start=new Date('2022-08-14T00:00:00.000Z').valueOf();
sats=[{"MEAN_ELEMENT_THEORY":"SGP4","LAUNCH_DATE":"2022-07-07","ELEMENT_SET_NO":"999","ARG_OF_PERICENTER":"18.4922","APOAPSIS":"353.060","MEAN_ANOMALY":"254.6828","SEMIMAJOR_AXIS":"6729.660","REF_FRAME":"TEME","TLE_LINE2":"2 52999  53.2174 194.6397 0002280  18.4922 254.6828 15.72581025  1300","OBJECT_NAME":"STARLINK-4217","CENTER_NAME":"EARTH","RA_OF_ASC_NODE":"194.6397","NORAD_CAT_ID":"52999","EPHEMERIS_TYPE":"0","MEAN_MOTION_DDOT":"0.0000000000000","GP_ID":"210167085","FILE":"3535825","ECCENTRICITY":"0.00022800","DECAY_DATE":null,"PERIOD":"91.569","TLE_LINE1":"1 52999U 22076P   22225.91667824 -.01053822  00000-0 -85654-2 0  9990","MEAN_MOTION":"15.72581025","SITE":"AFETR","RCS_SIZE":"LARGE","COUNTRY_CODE":"US","MEAN_MOTION_DOT":"-0.01053822","CLASSIFICATION_TYPE":"U","OBJECT_ID":"2022-076P","TIME_SYSTEM":"UTC","PERIAPSIS":"349.991","INCLINATION":"53.2174","OBJECT_TYPE":"PAYLOAD","REV_AT_EPOCH":"130","BSTAR":"-0.00856540000000","EPOCH":"2022-08-13T22:00:00.999936"},{"BSTAR":"-0.00857430000000","EPOCH":"2022-08-13T22:00:00.999936","REV_AT_EPOCH":"130","INCLINATION":"53.2173","OBJECT_TYPE":"PAYLOAD","PERIAPSIS":"350.289","MEAN_MOTION_DOT":"-0.01053536","CLASSIFICATION_TYPE":"U","OBJECT_ID":"2022-076Q","TIME_SYSTEM":"UTC","SITE":"AFETR","RCS_SIZE":"LARGE","COUNTRY_CODE":"US","PERIOD":"91.571","TLE_LINE1":"1 53000U 22076Q   22225.91667824 -.01053536  00000-0 -85743-2 0  9995","MEAN_MOTION":"15.72553257","FILE":"3535825","ECCENTRICITY":"0.00019550","DECAY_DATE":null,"EPHEMERIS_TYPE":"0","MEAN_MOTION_DDOT":"0.0000000000000","GP_ID":"210166954","NORAD_CAT_ID":"53000","CENTER_NAME":"EARTH","OBJECT_NAME":"STARLINK-4194","RA_OF_ASC_NODE":"194.6404","ARG_OF_PERICENTER":"25.0698","APOAPSIS":"352.920","MEAN_ANOMALY":"245.6947","SEMIMAJOR_AXIS":"6729.740","TLE_LINE2":"2 53000  53.2173 194.6404 0001955  25.0698 245.6947 15.72553257  1302","REF_FRAME":"TEME","LAUNCH_DATE":"2022-07-07","ELEMENT_SET_NO":"999","MEAN_ELEMENT_THEORY":"SGP4"},{"RA_OF_ASC_NODE":"194.6393","CENTER_NAME":"EARTH","OBJECT_NAME":"STARLINK-4190","SEMIMAJOR_AXIS":"6729.641","REF_FRAME":"TEME","TLE_LINE2":"2 53001  53.2174 194.6393 0002342  17.4339 256.3435 15.72587957  1304","MEAN_ANOMALY":"256.3435","APOAPSIS":"353.082","ARG_OF_PERICENTER":"17.4339","ELEMENT_SET_NO":"999","LAUNCH_DATE":"2022-07-07","MEAN_ELEMENT_THEORY":"SGP4","DECAY_DATE":null,"FILE":"3535825","ECCENTRICITY":"0.00023420","GP_ID":"210166299","MEAN_MOTION_DDOT":"0.0000000000000","EPHEMERIS_TYPE":"0","NORAD_CAT_ID":"53001","PERIAPSIS":"349.930","OBJECT_ID":"2022-076R","TIME_SYSTEM":"UTC","MEAN_MOTION_DOT":"-0.01053878","CLASSIFICATION_TYPE":"U","RCS_SIZE":"LARGE","COUNTRY_CODE":"US","SITE":"AFETR","TLE_LINE1":"1 53001U 22076R   22225.91667824 -.01053878  00000-0 -85631-2 0  9991","MEAN_MOTION":"15.72587957","PERIOD":"91.569","EPOCH":"2022-08-13T22:00:00.999936","BSTAR":"-0.00856310000000","REV_AT_EPOCH":"130","INCLINATION":"53.2174","OBJECT_TYPE":"PAYLOAD"},{"REV_AT_EPOCH":"130","EPOCH":"2022-08-13T22:00:00.999936","BSTAR":"-0.00857200000000","OBJECT_TYPE":"PAYLOAD","INCLINATION":"53.2174","OBJECT_ID":"2022-076S","TIME_SYSTEM":"UTC","CLASSIFICATION_TYPE":"U","MEAN_MOTION_DOT":"-0.01053586","PERIAPSIS":"350.235","MEAN_MOTION":"15.72560192","TLE_LINE1":"1 53002U 22076S   22225.91667824 -.01053586  00000-0 -85720-2 0  9997","PERIOD":"91.570","COUNTRY_CODE":"US","RCS_SIZE":"LARGE","SITE":"AFETR","GP_ID":"210166431","EPHEMERIS_TYPE":"0","MEAN_MOTION_DDOT":"0.0000000000000","DECAY_DATE":null,"ECCENTRICITY":"0.00020060","FILE":"3535825","NORAD_CAT_ID":"53002","REF_FRAME":"TEME","TLE_LINE2":"2 53002  53.2174 194.6402 0002006  23.8686 247.4987 15.72560192  1304","SEMIMAJOR_AXIS":"6729.720","APOAPSIS":"352.935","ARG_OF_PERICENTER":"23.8686","MEAN_ANOMALY":"247.4987","RA_OF_ASC_NODE":"194.6402","CENTER_NAME":"EARTH","OBJECT_NAME":"STARLINK-4121","MEAN_ELEMENT_THEORY":"SGP4","ELEMENT_SET_NO":"999","LAUNCH_DATE":"2022-07-07"},{"REV_AT_EPOCH":"130","BSTAR":"-0.00855810000000","EPOCH":"2022-08-13T22:00:00.999936","OBJECT_TYPE":"PAYLOAD","INCLINATION":"53.2174","CLASSIFICATION_TYPE":"U","MEAN_MOTION_DOT":"-0.01053908","OBJECT_ID":"2022-076T","TIME_SYSTEM":"UTC","PERIAPSIS":"349.859","PERIOD":"91.568","MEAN_MOTION":"15.72601795","TLE_LINE1":"1 53003U 22076T   22225.91667824 -.01053908  00000-0 -85581-2 0  9991","SITE":"AFETR","COUNTRY_CODE":"US","RCS_SIZE":"LARGE","EPHEMERIS_TYPE":"0","MEAN_MOTION_DDOT":"0.0000000000000","GP_ID":"210167217","ECCENTRICITY":"0.00023880","FILE":"3535825","DECAY_DATE":null,"NORAD_CAT_ID":"53003","ARG_OF_PERICENTER":"16.6516","APOAPSIS":"353.073","MEAN_ANOMALY":"258.3305","TLE_LINE2":"2 53003  53.2174 194.6388 0002388  16.6516 258.3305 15.72601795  1303","REF_FRAME":"TEME","SEMIMAJOR_AXIS":"6729.601","CENTER_NAME":"EARTH","OBJECT_NAME":"STARLINK-4255","RA_OF_ASC_NODE":"194.6388","MEAN_ELEMENT_THEORY":"SGP4","LAUNCH_DATE":"2022-07-07","ELEMENT_SET_NO":"999"},{"EPHEMERIS_TYPE":"0","MEAN_MOTION_DDOT":"0.0000000000000","GP_ID":"210166562","FILE":"3535825","ECCENTRICITY":"0.00022240","DECAY_DATE":null,"NORAD_CAT_ID":"53004","APOAPSIS":"353.042","ARG_OF_PERICENTER":"19.4979","MEAN_ANOMALY":"253.0746","SEMIMAJOR_AXIS":"6729.680","TLE_LINE2":"2 53004  53.2174 194.6396 0002224  19.4979 253.0746 15.72574096  1300","REF_FRAME":"TEME","CENTER_NAME":"EARTH","OBJECT_NAME":"STARLINK-4253","RA_OF_ASC_NODE":"194.6396","MEAN_ELEMENT_THEORY":"SGP4","LAUNCH_DATE":"2022-07-07","ELEMENT_SET_NO":"999","REV_AT_EPOCH":"130","BSTAR":"-0.00856780000000","EPOCH":"2022-08-13T22:00:00.999936","INCLINATION":"53.2174","OBJECT_TYPE":"PAYLOAD","MEAN_MOTION_DOT":"-0.01053781","CLASSIFICATION_TYPE":"U","OBJECT_ID":"2022-076U","TIME_SYSTEM":"UTC","PERIAPSIS":"350.049","PERIOD":"91.570","TLE_LINE1":"1 53004U 22076U   22225.91667824 -.01053781  00000-0 -85678-2 0  9998","MEAN_MOTION":"15.72574096","SITE":"AFETR","RCS_SIZE":"LARGE","COUNTRY_CODE":"US"},{"LAUNCH_DATE":"2022-07-07","ELEMENT_SET_NO":"999","MEAN_ELEMENT_THEORY":"SGP4","CENTER_NAME":"EARTH","OBJECT_NAME":"STARLINK-4288","RA_OF_ASC_NODE":"194.6385","MEAN_ANOMALY":"257.6364","APOAPSIS":"352.998","ARG_OF_PERICENTER":"17.9480","SEMIMAJOR_AXIS":"6729.582","REF_FRAME":"TEME","TLE_LINE2":"2 53005  53.2174 194.6385 0002305  17.9480 257.6364 15.72608685  1307","NORAD_CAT_ID":"53005","FILE":"3535825","ECCENTRICITY":"0.00023050","DECAY_DATE":null,"MEAN_MOTION_DDOT":"0.0000000000000","EPHEMERIS_TYPE":"0","GP_ID":"210166693","SITE":"AFETR","RCS_SIZE":"LARGE","COUNTRY_CODE":"US","PERIOD":"91.568","TLE_LINE1":"1 53005U 22076V   22225.91667824 -.01053842  00000-0 -85553-2 0  9999","MEAN_MOTION":"15.72608685","PERIAPSIS":"349.895","MEAN_MOTION_DOT":"-0.01053842","CLASSIFICATION_TYPE":"U","TIME_SYSTEM":"UTC","OBJECT_ID":"2022-076V","INCLINATION":"53.2174","OBJECT_TYPE":"PAYLOAD","BSTAR":"-0.00855530000000","EPOCH":"2022-08-13T22:00:00.999936","REV_AT_EPOCH":"130"},{"MEAN_ELEMENT_THEORY":"SGP4","LAUNCH_DATE":"2022-07-07","ELEMENT_SET_NO":"999","ARG_OF_PERICENTER":"12.9874","APOAPSIS":"353.270","MEAN_ANOMALY":"261.3924","SEMIMAJOR_AXIS":"6729.621","TLE_LINE2":"2 53006  53.2174 194.6387 0002651  12.9874 261.3924 15.72594945  1303","REF_FRAME":"TEME","CENTER_NAME":"EARTH","OBJECT_NAME":"STARLINK-4290","RA_OF_ASC_NODE":"194.6387","NORAD_CAT_ID":"53006","EPHEMERIS_TYPE":"0","MEAN_MOTION_DDOT":"0.0000000000000","GP_ID":"210166824","FILE":"3535825","ECCENTRICITY":"0.00026510","DECAY_DATE":null,"PERIOD":"91.568","TLE_LINE1":"1 53006U 22076W   22225.91667824 -.01054091  00000-0 -85612-2 0  9993","MEAN_MOTION":"15.72594945","SITE":"AFETR","RCS_SIZE":"LARGE","COUNTRY_CODE":"US","MEAN_MOTION_DOT":"-0.01054091","CLASSIFICATION_TYPE":"U","OBJECT_ID":"2022-076W","TIME_SYSTEM":"UTC","PERIAPSIS":"349.702","INCLINATION":"53.2174","OBJECT_TYPE":"PAYLOAD","REV_AT_EPOCH":"130","BSTAR":"-0.00856120000000","EPOCH":"2022-08-13T22:00:00.999936"},{"MEAN_ELEMENT_THEORY":"SGP4","LAUNCH_DATE":"2022-07-07","ELEMENT_SET_NO":"999","MEAN_ANOMALY":"258.6209","APOAPSIS":"352.902","ARG_OF_PERICENTER":"18.7701","REF_FRAME":"TEME","TLE_LINE2":"2 53007  53.2175 194.6366 0002250  18.7701 258.6209 15.72629180  1305","SEMIMAJOR_AXIS":"6729.523","OBJECT_NAME":"STARLINK-4215","CENTER_NAME":"EARTH","RA_OF_ASC_NODE":"194.6366","NORAD_CAT_ID":"53007","MEAN_MOTION_DDOT":"0.0000000000000","EPHEMERIS_TYPE":"0","GP_ID":"210167086","ECCENTRICITY":"0.00022500","FILE":"3535825","DECAY_DATE":null,"PERIOD":"91.566","MEAN_MOTION":"15.72629180","TLE_LINE1":"1 53007U 22076X   22225.91667824 -.01053789  00000-0 -85475-2 0  9994","SITE":"AFETR","COUNTRY_CODE":"US","RCS_SIZE":"LARGE","CLASSIFICATION_TYPE":"U","MEAN_MOTION_DOT":"-0.01053789","TIME_SYSTEM":"UTC","OBJECT_ID":"2022-076X","PERIAPSIS":"349.874","OBJECT_TYPE":"PAYLOAD","INCLINATION":"53.2175","REV_AT_EPOCH":"130","BSTAR":"-0.00854750000000","EPOCH":"2022-08-13T22:00:00.999936"},{"RCS_SIZE":"LARGE","COUNTRY_CODE":"US","SITE":"AFETR","TLE_LINE1":"1 53008U 22076Y   22225.91667824 -.01053633  00000-0 -85519-2 0  9992","MEAN_MOTION":"15.72615465","PERIOD":"91.567","PERIAPSIS":"350.045","TIME_SYSTEM":"UTC","OBJECT_ID":"2022-076Y","MEAN_MOTION_DOT":"-0.01053633","CLASSIFICATION_TYPE":"U","INCLINATION":"53.2174","OBJECT_TYPE":"PAYLOAD","EPOCH":"2022-08-13T22:00:00.999936","BSTAR":"-0.00855190000000","REV_AT_EPOCH":"130","ELEMENT_SET_NO":"999","LAUNCH_DATE":"2022-07-07","MEAN_ELEMENT_THEORY":"SGP4","RA_OF_ASC_NODE":"194.6375","OBJECT_NAME":"STARLINK-4275","CENTER_NAME":"EARTH","SEMIMAJOR_AXIS":"6729.562","TLE_LINE2":"2 53008  53.2174 194.6375 0002054  22.5334 253.6533 15.72615465  1308","REF_FRAME":"TEME","APOAPSIS":"352.809","MEAN_ANOMALY":"253.6533","ARG_OF_PERICENTER":"22.5334","NORAD_CAT_ID":"53008","DECAY_DATE":null,"FILE":"3535825","ECCENTRICITY":"0.00020540","GP_ID":"210166955","EPHEMERIS_TYPE":"0","MEAN_MOTION_DDOT":"0.0000000000000"}];
